H1 CPF  1  DGF 2022 10 08 10  7811 larets     NONE      
H2   304206 5557    27944 2022 10 08 00 00 00 2022 10 15 00 00 00    30 1 1  0 0 0
H5  0.0650
H9
10 0 59864   3600.000000  0       3756473.474        311022.780       5971030.784
10 0 59864   3630.000000  0       3577175.225        227678.201       6083775.311
10 0 59864   3660.000000  0       3393899.065        144896.670       6190327.111
10 0 59864   3690.000000  0       3206833.394         62778.846       6290578.684
10 0 59864   3720.000000  0       3016170.799        -18576.140       6384428.936
10 0 59864   3750.000000  0       2822107.857        -99070.804       6471783.273
10 0 59864   3780.000000  0       2624844.928       -178609.415       6552553.687
10 0 59864   3810.000000  0       2424585.950       -257098.113       6626658.845
10 0 59864   3840.000000  0       2221538.226       -334445.013       6694024.157
10 0 59864   3870.000000  0       2015912.208       -410560.309       6754581.855
10 0 59864   3900.000000  0       1807921.278       -485356.380       6808271.056
10 0 59864   3930.000000  0       1597781.522       -558747.887       6855037.815
10 0 59864   3960.000000  0       1385711.507       -630651.871       6894835.173
10 0 59864   3990.000000  0       1171932.049       -700987.840       6927623.197
10 0 59864   4020.000000  0        956665.991       -769677.858       6953369.015
10 0 59864   4050.000000  0        740137.973       -836646.631       6972046.847
10 0 59864   4080.000000  0        522574.201       -901821.585       6983638.030
10 0 59864   4110.000000  0        304202.206       -965132.950       6988131.030
10 0 59864   4140.000000  0         85250.613      -1026513.825       6985521.457
10 0 59864   4170.000000  0       -134051.097      -1085900.255       6975812.057
10 0 59864   4200.000000  0       -353472.820      -1143231.295       6959012.721
10 0 59864   4230.000000  0       -572784.071      -1198449.072       6935140.466
10 0 59864   4260.000000  0       -791754.225      -1251498.839       6904219.422
10 0 59864   4290.000000  0      -1010152.751      -1302329.038       6866280.807
10 0 59864   4320.000000  0      -1227749.456      -1350891.339       6821362.894
10 0 59864   4350.000000  0      -1444314.717      -1397140.691       6769510.982
10 0 59864   4380.000000  0      -1659619.724      -1441035.360       6710777.347
10 0 59864   4410.000000  0      -1873436.719      -1482536.966       6645221.197
10 0 59864   4440.000000  0      -2085539.227      -1521610.515       6572908.618
10 0 59864   4470.000000  0      -2295702.299      -1558224.430       6493912.516
10 0 59864   4500.000000  0      -2503702.745      -1592350.573       6408312.556
10 0 59864   4530.000000  0      -2709319.380      -1623964.266       6316195.089
10 0 59864   4560.000000  0      -2912333.255      -1653044.314       6217653.071
10 0 59864   4590.000000  0      -3112527.900      -1679573.010       6112785.979
10 0 59864   4620.000000  0      -3309689.558      -1703536.145       6001699.711
10 0 59864   4650.000000  0      -3503607.408      -1724923.018       5884506.484
10 0 59864   4680.000000  0      -3694073.799      -1743726.427       5761324.731
10 0 59864   4710.000000  0      -3880884.470      -1759942.670       5632278.987
10 0 59864   4740.000000  0      -4063838.778      -1773571.536       5497499.767
10 0 59864   4770.000000  0      -4242739.916      -1784616.284       5357123.447
10 0 59864   4800.000000  0      -4417395.133      -1793083.633       5211292.125
10 0 59864   4830.000000  0      -4587615.945      -1798983.733       5060153.487
10 0 59864   4860.000000  0      -4753218.344      -1802330.145       4903860.657
10 0 59864   4890.000000  0      -4914023.002      -1803139.799       4742572.053
10 0 59864   4920.000000  0      -5069855.474      -1801432.970       4576451.222
10 0 59864   4950.000000  0      -5220546.387      -1797233.225       4405666.689
10 0 59864   4980.000000  0      -5365931.636      -1790567.387       4230391.782
10 0 59864   5010.000000  0      -5505852.569      -1781465.484       4050804.466
10 0 59864   5040.000000  0      -5640156.162      -1769960.694       3867087.163
10 0 59864   5070.000000  0      -5768695.201      -1756089.293       3679426.572
10 0 59864   5100.000000  0      -5891328.445      -1739890.589       3488013.483
10 0 59864   5130.000000  0      -6007920.793      -1721406.863       3293042.586
10 0 59864   5160.000000  0      -6118343.441      -1700683.298       3094712.276
10 0 59864   5190.000000  0      -6222474.037      -1677767.911       2893224.454
10 0 59864   5220.000000  0      -6320196.824      -1652711.476       2688784.320
10 0 59864   5250.000000  0      -6411402.787      -1625567.446       2481600.161
10 0 59864   5280.000000  0      -6495989.778      -1596391.868       2271883.134
10 0 59864   5310.000000  0      -6573862.638      -1565243.299       2059847.045
10 0 59864   5340.000000  0      -6644933.309      -1532182.714       1845708.127
10 0 59864   5370.000000  0      -6709120.938      -1497273.415       1629684.815
10 0 59864   5400.000000  0      -6766351.977      -1460580.936       1411997.523
10 0 59864   5430.000000  0      -6816560.271      -1422172.942       1192868.412
10 0 59864   5460.000000  0      -6859687.141      -1382119.128        972521.160
10 0 59864   5490.000000  0      -6895681.456      -1340491.117        751180.726
10 0 59864   5520.000000  0      -6924499.699      -1297362.350        529073.115
10 0 59864   5550.000000  0      -6946106.016      -1252807.977        306425.137
10 0 59864   5580.000000  0      -6960472.270      -1206904.750         83464.174
10 0 59864   5610.000000  0      -6967578.069      -1159730.909       -139582.060
10 0 59864   5640.000000  0      -6967410.801      -1111366.066       -362485.762
10 0 59864   5670.000000  0      -6959965.650      -1061891.090       -585019.276
10 0 59864   5700.000000  0      -6945245.605      -1011387.990       -806955.335
10 0 59864   5730.000000  0      -6923261.460       -959939.792      -1028067.300
10 0 59864   5760.000000  0      -6894031.801       -907630.421      -1248129.393
10 0 59864   5790.000000  0      -6857582.994       -854544.582      -1466916.936
10 0 59864   5820.000000  0      -6813949.155       -800767.636      -1684206.584
10 0 59864   5850.000000  0      -6763172.116       -746385.482      -1899776.554
10 0 59864   5880.000000  0      -6705301.385       -691484.433      -2113406.863
10 0 59864   5910.000000  0      -6640394.091       -636151.096      -2324879.556
10 0 59864   5940.000000  0      -6568514.924       -580472.250      -2533978.934
10 0 59864   5970.000000  0      -6489736.064       -524534.722      -2740491.782
10 0 59864   6000.000000  0      -6404137.099       -468425.264      -2944207.591
10 0 59864   6030.000000  0      -6311804.934       -412230.433      -3144918.775
10 0 59864   6060.000000  0      -6212833.696       -356036.464      -3342420.883
10 0 59864   6090.000000  0      -6107324.629       -299929.155      -3536512.809
10 0 59864   6120.000000  0      -5995385.981       -243993.745      -3726996.996
10 0 59864   6150.000000  0      -5877132.884       -188314.797      -3913679.643
10 0 59864   6180.000000  0      -5752687.224       -132976.081      -4096370.894
10 0 59864   6210.000000  0      -5622177.509        -78060.461      -4274885.034
10 0 59864   6240.000000  0      -5485738.724        -23649.777      -4449040.676
10 0 59864   6270.000000  0      -5343512.184         30175.258      -4618660.941
10 0 59864   6300.000000  0      -5195645.380         83335.176      -4783573.634
10 0 59864   6330.000000  0      -5042291.817        135751.861      -4943611.419
10 0 59864   6360.000000  0      -4883610.847        187348.648      -5098611.984
10 0 59864   6390.000000  0      -4719767.489        238050.431      -5248418.202
10 0 59864   6420.000000  0      -4550932.251        287783.760      -5392878.282
10 0 59864   6450.000000  0      -4377280.948        336476.938      -5531845.918
10 0 59864   6480.000000  0      -4198994.507        384060.114      -5665180.431
10 0 59864   6510.000000  0      -4016258.771        430465.376      -5792746.906
10 0 59864   6540.000000  0      -3829264.303        475626.838      -5914416.316
10 0 59864   6570.000000  0      -3638206.177        519480.726      -6030065.650
10 0 59864   6600.000000  0      -3443283.774        561965.460      -6139578.024
10 0 59864   6630.000000  0      -3244700.568        603021.736      -6242842.792
10 0 59864   6660.000000  0      -3042663.917        642592.595      -6339755.651
10 0 59864   6690.000000  0      -2837384.844        680623.499      -6430218.745
10 0 59864   6720.000000  0      -2629077.811        717062.401      -6514140.758
10 0 59864   6750.000000  0      -2417960.493        751859.810      -6591437.000
10 0 59864   6780.000000  0      -2204253.547        784968.848      -6662029.484
10 0 59864   6810.000000  0      -1988180.381        816345.317      -6725846.997
10 0 59864   6840.000000  0      -1769966.921        845947.748      -6782825.166
10 0 59864   6870.000000  0      -1549841.380        873737.455      -6832906.515
10 0 59864   6900.000000  0      -1328034.016        899678.578      -6876040.519
10 0 59864   6930.000000  0      -1104776.895        923738.129      -6912183.649
10 0 59864   6960.000000  0       -880303.652        945886.032      -6941299.412
10 0 59864   6990.000000  0       -654849.252        966095.155      -6963358.382
10 0 59864   7020.000000  0       -428649.744        984341.346      -6978338.230
10 0 59864   7050.000000  0       -201942.027       1000603.456      -6986223.745
10 0 59864   7080.000000  0         25036.398       1014863.367      -6987006.853
10 0 59864   7110.000000  0        252047.672       1027106.006      -6980686.632
10 0 59864   7140.000000  0        478853.828       1037319.369      -6967269.315
10 0 59864   7170.000000  0        705217.045       1045494.526      -6946768.288
99
